{
  "norad_id": 52867,
  "name": "STARLINK-4126",
  "history": [
    {
      "epoch": "2026-03-28T20:34:57.853920",
      "apogee_km": 540.8213613977559,
      "perigee_km": 538.656619642803,
      "latitude_deg": -29.697860957631384,
      "longitude_deg": -90.96905119996518,
      "semi_major_axis_km": 6917.87599052028,
      "eccentricity": 0.00015646,
      "inclination_deg": 53.2169,
      "raan_deg": 298.0751,
      "arg_perigee_deg": 81.7538,
      "mean_anomaly_deg": 278.3631,
      "mean_motion_rev_day": 15.08841439
    }
  ]
}