{"fetched_at":"2026-03-30T06:02:59Z","count":15439,"tles":[{"name":"STARLINK-4126","line1":"1 52867U 22062AP  26087.85761405  .00006267  00000+0  41149-3 0  9991","line2":"2 52867  53.2169 298.0751 0001564  81.7538 278.3631 15.08841439208829","category":"Starlink"}]}